COSMOS 2433 (720)       
1 32275U 07052A   26090.01892490 -.00000035  00000+0  00000+0 0  9990
2 32275  65.6193 318.5652 0000934 250.3488 109.6996  2.13103725143391
COSMOS 2432 (719)       
1 32276U 07052B   26095.48646690 -.00000046  00000+0  00000+0 0  9998
2 32276  65.6327 318.5074 0009689 336.2251 202.4839  2.13103236143538
COSMOS 2434 (721)       
1 32393U 07065A   26093.45692049  .00000014  00000+0  00000+0 0  9990
2 32393  64.3164 194.4350 0002255  60.2040 307.5513  2.13101374142180
COSMOS 2436 (723)       
1 32395U 07065C   26095.19957588  .00000018  00000+0  00000+0 0  9991
2 32395  64.3249 194.4474 0017243   2.7284  34.5461  2.13100298142179
COSMOS 2456 (730)       
1 36111U 09070A   26095.32984413 -.00000002  00000+0  00000+0 0  9995
2 36111  64.9700  73.4555 0006490 311.3492 210.9797  2.13103601126877
COSMOS 2457 (733)       
1 36112U 09070B   26094.01031916 -.00000008  00000+0  00000+0 0  9998
2 36112  64.9547  73.3459 0001490 193.6954 164.4243  2.13100936126842
COSMOS 2460 (732)       
1 36402U 10007C   26094.24975299 -.00000046  00000+0  00000+0 0  9990
2 36402  65.4623 316.9695 0002181  49.5361 133.5187  2.13106066125159
COSMOS 2476 (744)       
1 37867U 11064A   26095.24142771  .00000001  00000+0  00000+0 0  9992
2 37867  65.2297  75.3322 0024787 242.3666 120.4755  2.13103713112215
COSMOS 2477 (745)       
1 37868U 11064B   26095.47511352  .00000003  00000+0  00000+0 0  9995
2 37868  65.2365  75.4031 0021870 243.9578 118.7207  2.13102893112219
COSMOS 2475 (743)       
1 37869U 11064C   26092.47987737 -.00000001  00000+0  00000+0 0  9996
2 37869  65.2414  75.5251 0027830 255.4078 284.8639  2.13101572112155
COSMOS 2485 (747)       
1 39155U 13019A   26093.29778161 -.00000003  00000+0  00000+0 0  9990
2 39155  65.3788  76.1162 0025098 237.7826 121.9613  2.13103023100687
COSMOS 2492 (754)       
1 39620U 14012A   26095.13377632 -.00000045  00000+0  00000+0 0  9990
2 39620  65.3389 316.4197 0012298 329.8345  30.1426  2.13103240 93681
COSMOS 2500 (755)       
1 40001U 14032A   26092.95821382 -.00000044  00000+0  00000+0 0  9999
2 40001  65.2756 316.2469 0005137 188.3777 171.6663  2.13105929 91851
COSMOS 2501 (702K)      
1 40315U 14075A   26084.30325579  .00000001  00000+0  00000+0 0  9993
2 40315  63.6158 193.2737 0021182 207.3153 152.5805  2.13101287 88064
COSMOS 2514 (751)       
1 41330U 16008A   26091.32659271 -.00000037  00000+0  00000+0 0  9998
2 41330  65.0661 315.6458 0009038 202.4041 157.6117  2.13102702 78980
COSMOS 2522 (752)       
1 42939U 17055A   26087.87961730 -.00000036  00000+0  00000+0 0  9997
2 42939  64.0780 194.6153 0008050 231.2616 128.6626  2.13101664 66262
COSMOS 2527 (756)       
1 43508U 18053A   26094.41055528 -.00000001  00000+0  00000+0 0  9998
2 43508  65.5379  76.3665 0009215 247.9985 111.8895  2.13102083 60707
